2025-313AL              
1 67282U 25313AL  26016.95343818  .00005768  00000+0  26228-3 0  9993
2 67282  97.4107  94.0983 0011583 163.5833 196.5780 15.21065006  2953
HORS 5                  
1 67283U 25313AM  26016.95246201  .00008981  00000+0  40484-3 0  9992
2 67283  97.4115  94.1020 0011451 163.6113 196.5496 15.21204530  2953
LOBACHEVSKY (RS83S)     
1 67284U 25313AN  26016.95361878  .00003451  00000+0  15846-3 0  9992
2 67284  97.4098  94.0961 0011455 163.4142 196.7470 15.21007137  2959
NASBSAT-2               
1 67285U 25313AP  26016.95158932  .00008064  00000+0  36330-3 0  9994
2 67285  97.4093  94.0965 0011083 164.9840 195.1727 15.21262215  2955
2025-313AQ              
1 67286U 25313AQ  26016.95102667  .00009341  00000+0  42043-3 0  9996
2 67286  97.4113  94.1113 0010797 159.8863 200.2800 15.21252048  2957
LUCA (RS90S)            
1 67287U 25313AR  26016.88452401  .00009461  00000+0  42416-3 0  9990
2 67287  97.4114  94.0480 0010665 161.9312 198.2305 15.21383694  2949
2025-313AS              
1 67288U 25313AS  26016.95128460  .00005640  00000+0  25521-3 0  9997
2 67288  97.4101  94.1073 0012533 154.5673 205.6182 15.21234525  2954
NASBSAT-1               
1 67289U 25313AT  26016.94906399  .00012815  00000+0  57044-3 0  9999
2 67289  97.4116  94.1148 0010550 162.1637 197.9972 15.21549455  2957
SAKHACUBE-CHOLBON (RS1*)
1 67290U 25313AU  26016.94930600  .00010115  00000+0  45204-3 0  9999
2 67290  97.4114  94.1142 0010398 161.0881 199.0743 15.21476187  2950
QMR-KWT-2 (RS95S)       
1 67291U 25313AV  26016.94878651  .00011944  00000+0  53212-3 0  9996
2 67291  97.4113  94.1149 0010282 161.1266 199.0353 15.21541579  2952
SITRO-AIS-64            
1 67292U 25313AW  26016.94812524  .00010559  00000+0  47044-3 0  9991
2 67292  97.4117  94.1171 0010075 160.7711 199.3907 15.21572584  2950
SCORPION (RS89S)        
1 67293U 25313AX  26016.94958800  .00004297  00000+0  19460-3 0  9993
2 67293  97.4112  94.1116 0012005 152.2835 207.9044 15.21342342  2958
SITRO-AIS-63            
1 67294U 25313AY  26016.94758531  .00010299  00000+0  45841-3 0  9994
2 67294  97.4121  94.1182 0009963 161.0207 199.1402 15.21614415  2955
ZORKIY-2M-5             
1 67295U 25313AZ  26016.94766441  .00009179  00000+0  40919-3 0  9990
2 67295  97.4112  94.1142 0011498 152.1920 207.9933 15.21578055  2957
SITRO-AIS-62            
1 67296U 25313BA  26016.94696001  .00010222  00000+0  45438-3 0  9997
2 67296  97.4124  94.1203 0009747 161.4411 198.7183 15.21662660  2951
SITRO-AIS-61            
1 67297U 25313BB  26016.94622443  .00010118  00000+0  44901-3 0  9995
2 67297  97.4127  94.1211 0009420 163.3191 196.8357 15.21725279  2956
TIANHUI 7               
1 67300U 25314A   26017.38904097  .00002022  00000+0  82683-4 0  9993
2 67300  97.4206  94.4578 0001844 108.3541 251.7897 15.25503369  2798
CZ-4B R/B               
1 67301U 25314B   26016.96083724  .00106712  54943-5  51536-3 0  9996
2 67301  97.3744  95.0744 0137900 311.7769  47.1773 15.69769186  2757
SHIJIAN-29A (SJ-29A)    
1 67302U 25315A   26016.85233295 -.00000052  00000+0  00000+0 0  9992
2 67302   3.0144  99.1337 0001543 305.6680  91.3468  1.00271509   102
CZ-7A R/B               
1 67303U 25315B   26016.67349735  .00138472  14161-5  37144-2 0  9998
2 67303  19.5697  93.5866 7193067 191.7422 131.7491  2.43762573   414
CSG-3                   
1 67304U 26001A   26016.97890297  .00000168  00000+0  27449-4 0  9999
2 67304  97.8445 202.8320 0001402  75.6614 284.4755 14.82411671  2060
STARLINK-36490          
1 67305U 26002A   26016.91668981 -.01319775  00000+0 -66789-2 0  9996
2 67305  42.9964 264.0383 0001518 267.5639 249.3791 15.83405180  3155
STARLINK-36488          
1 67306U 26002B   26016.91668981 -.01321673  00000+0 -66895-2 0  9995
2 67306  42.9967 264.0330 0001613 281.1885 237.8547 15.83405329  3091
STARLINK-36481          
1 67307U 26002C   26016.91668981 -.01338319  00000+0 -67983-2 0  9990
2 67307  42.9968 264.0208 0001509 275.8943 248.0971 15.83368210  3098
STARLINK-36449          
1 67308U 26002D   26016.91668981 -.01346550  00000+0 -68497-2 0  9998
2 67308  42.9966 264.0147 0001521 275.6452 250.7097 15.83357260  3155
STARLINK-36482          
1 67309U 26002E   26016.91668981 -.01407331  00000+0 -70768-2 0  9998
2 67309  42.9971 263.9846 0001477 268.4426 270.1257 15.83268894  3098
STARLINK-36491          
1 67310U 26002F   26016.91668981 -.01335087  00000+0 -67816-2 0  9998
2 67310  42.9970 264.0261 0001521 277.6892 244.2644 15.83361637  3092
STARLINK-36495          
1 67311U 26002G   26016.91668981 -.01350430  00000+0 -68826-2 0  9990
2 67311  42.9969 264.0082 0001545 276.2611 252.7123 15.83325605  3251
STARLINK-36485          
1 67312U 26002H   26016.91668981 -.01354869  00000+0 -69218-2 0  9997
2 67312  42.9970 264.0012 0001530 271.4564 260.2809 15.83286016  3094
STARLINK-36445          
1 67313U 26002J   26016.91668981 -.01360495  00000+0 -69479-2 0  9999
2 67313  42.9966 263.9963 0001528 275.7303 257.8650 15.83306572  3252
STARLINK-36476          
1 67314U 26002K   26016.91668981 -.01372438  00000+0 -70295-2 0  9998
2 67314  42.9970 263.9898 0001492 269.6950 266.6345 15.83272791  3091
STARLINK-36463          
1 67315U 26002L   26016.91668981 -.01428450  00000+0 -71986-2 0  9993
2 67315  42.9968 263.9776 0001461 271.5695 269.3795 15.83262509  3150
STARLINK-36461          
1 67316U 26002M   26016.91668981 -.01474959  00000+0 -74759-2 0  9990
2 67316  42.9968 263.9703 0001478 274.5746 269.2629 15.83227975  3253
STARLINK-36450          
1 67317U 26002N   26016.91668981 -.01501613  00000+0 -76321-2 0  9996
2 67317  42.9968 263.9645 0001424 275.5920 270.5827 15.83220522  3251
STARLINK-36498          
1 67318U 26002P   26016.91668981 -.01544756  00000+0 -79007-2 0  9996
2 67318  42.9967 263.9520 0001423 270.0796 280.9939 15.83170635  3150
STARLINK-36470          
1 67319U 26002Q   26016.91668981 -.01527102  00000+0 -77873-2 0  9992
2 67319  42.9969 263.9583 0001409 274.3010 274.3238 15.83199574  3154
STARLINK-36500          
1 67320U 26002R   26016.91668981 -.01548225  00000+0 -79340-2 0  9994
2 67320  42.9970 263.9465 0001449 274.5393 278.9314 15.83135919  3155
STARLINK-36462          
1 67321U 26002S   26016.91668981 -.01566236  00000+0 -80693-2 0  9990
2 67321  42.9971 263.9339 0001440 272.8699 285.5804 15.83058594  3092
STARLINK-36434          
1 67322U 26002T   26016.91668981 -.01563137  00000+0 -80531-2 0  9999
2 67322  42.9971 263.9388 0001386 274.8074 281.6657 15.83054136  3096
STARLINK-36497          
1 67323U 26002U   26016.91668981 -.01582380  00000+0 -81776-2 0  9993
2 67323  42.9974 263.9277 0001462 272.8536 288.0499 15.83024884  3152
STARLINK-36471          
1 67324U 26002V   26016.91668981 -.01604092  00000+0 -83635-2 0  9995
2 67324  42.9978 263.9138 0001465 270.9079 295.6241 15.82881461  3090
STARLINK-36473          
1 67325U 26002W   26016.91668981 -.01591197  00000+0 -82649-2 0  9991
2 67325  42.9973 263.9202 0001420 269.1091 294.7962 15.82936384  3256
STARLINK-36430          
1 67326U 26002X   26016.91668981 -.01621913  00000+0 -85167-2 0  9990
2 67326  42.9973 263.9002 0001404 264.4923 307.3329 15.82768002  3257
STARLINK-36501          
1 67327U 26002Y   26016.91668981 -.01615162  00000+0 -84494-2 0  9992
2 67327  42.9976 263.9071 0001452 269.3776 299.7314 15.82832964  3099
STARLINK-36489          
1 67328U 26002Z   26016.91668981 -.01632969  00000+0 -86172-2 0  9992
2 67328  42.9971 263.8928 0001479 270.4102 304.2842 15.82685058  3256
STARLINK-36496          
1 67329U 26002AA  26016.91668981 -.01656857  00000+0 -88002-2 0  9999
2 67329  42.9972 263.8798 0001471 264.7514 314.9452 15.82595856  3079
STARLINK-36483          
1 67330U 26002AB  26016.91668981 -.01679574  00000+0 -90140-2 0  9998
2 67330  42.9972 263.8651 0001408 266.3458 319.0668 15.82423527  3254
STARLINK-36494          
1 67331U 26002AC  26016.91668981 -.01637017  00000+0 -86669-2 0  9996
2 67331  42.9971 263.8859 0001492 262.9630 314.3381 15.82624177  3255
STARLINK-36492          
1 67332U 26002AD  26016.91668981 -.01670415  00000+0 -89533-2 0  9999
2 67332  42.9973 263.8705 0001491 268.7677 314.5060 15.82431384  3254
STARLINK-36427          
1 67333U 26002AE  26016.91668981 -.01692092  00000+0 -60387-2 0  9991
2 67333  42.9955 263.4456 0001742 277.1907 113.5869 15.90639297  3158
STARLINK-35343          
1 67334U 26003A   26016.91668981 -.01284264  48956-3 -32648-2 0  9996
2 67334  42.9980 167.7007 0001778 273.2071  24.7785 15.94564524  2291
STARLINK-36486          
1 67335U 26003B   26016.91668981 -.01282420  48849-3 -32525-2 0  9994
2 67335  42.9981 167.6974 0001718 271.9499  27.4227 15.94607945  2351
STARLINK-36480          
1 67336U 26003C   26016.91668981 -.01285547  49101-3 -32482-2 0  9992
2 67336  42.9982 167.6927 0001734 273.3484  27.8961 15.94678207  2357
STARLINK-36410          
1 67337U 26003D   26016.91668981 -.01298564  50057-3 -32667-2 0  9993
2 67337  42.9982 167.6878 0001772 274.2563  28.8479 15.94761735  2357
STARLINK-36413          
1 67338U 26003E   26016.91668981 -.01294221  49778-3 -32463-2 0  9992
2 67338  42.9982 167.6836 0001637 272.1243  32.7174 15.94815680  2359
STARLINK-36451          
1 67339U 26003F   26016.91668981 -.01296672  49984-3 -32408-2 0  9993
2 67339  42.9982 167.6787 0001691 275.5579  31.0788 15.94882738  2355
STARLINK-36339          
1 67340U 26003G   26016.91668981 -.01308981  50900-3 -32567-2 0  9998
2 67340  42.9981 167.6735 0001664 273.2368  35.5812 15.94969112  2359
STARLINK-36453          
1 67341U 26003H   26016.91668981 -.01318659  51634-3 -32664-2 0  9995
2 67341  42.9983 167.6679 0001734 274.2349  36.6853 15.95051866  2353
STARLINK-36432          
1 67342U 26003J   26016.91668981 -.01320610  51812-3 -32583-2 0  9994
2 67342  42.9982 167.6634 0001843 273.4935  39.3266 15.95125496  2345
